[{"OBJECT_NAME":"GALAXY 33 (G-33)","OBJECT_ID":"2022-128A","EPOCH":"2026-03-05T00:25:38.690688","MEAN_MOTION":1.00273895,"ECCENTRICITY":0.00018847,"INCLINATION":0.0175,"RA_OF_ASC_NODE":165.2977,"ARG_OF_PERICENTER":177.9169,"MEAN_ANOMALY":52.9895,"EPHEMERIS_TYPE":0,"CLASSIFICATION_TYPE":"U","NORAD_CAT_ID":54026,"ELEMENT_SET_NO":999,"REV_AT_EPOCH":1269,"BSTAR":0,"MEAN_MOTION_DOT":0,"MEAN_MOTION_DDOT":0},{"OBJECT_NAME":"GALAXY 34 (G-34)","OBJECT_ID":"2022-128B","EPOCH":"2026-03-05T02:10:38.765280","MEAN_MOTION":1.00273187,"ECCENTRICITY":0.00013768,"INCLINATION":0.013,"RA_OF_ASC_NODE":129.5428,"ARG_OF_PERICENTER":217.6718,"MEAN_ANOMALY":79.2813,"EPHEMERIS_TYPE":0,"CLASSIFICATION_TYPE":"U","NORAD_CAT_ID":54027,"ELEMENT_SET_NO":999,"REV_AT_EPOCH":1286,"BSTAR":0,"MEAN_MOTION_DOT":5.0e-7,"MEAN_MOTION_DDOT":0},{"OBJECT_NAME":"GALAXY 31 (G-31)","OBJECT_ID":"2022-153A","EPOCH":"2026-03-05T07:46:38.500608","MEAN_MOTION":1.00272772,"ECCENTRICITY":0.000149,"INCLINATION":0.0114,"RA_OF_ASC_NODE":186.2478,"ARG_OF_PERICENTER":168.2279,"MEAN_ANOMALY":164.2342,"EPHEMERIS_TYPE":0,"CLASSIFICATION_TYPE":"U","NORAD_CAT_ID":54243,"ELEMENT_SET_NO":999,"REV_AT_EPOCH":609,"BSTAR":0,"MEAN_MOTION_DOT":5.0e-8,"MEAN_MOTION_DDOT":0},{"OBJECT_NAME":"GALAXY 32 (G-32)","OBJECT_ID":"2022-153B","EPOCH":"2026-03-04T04:27:38.803392","MEAN_MOTION":1.00267915,"ECCENTRICITY":0.00030041,"INCLINATION":0.0222,"RA_OF_ASC_NODE":132.7365,"ARG_OF_PERICENTER":225.3208,"MEAN_ANOMALY":139.8078,"EPHEMERIS_TYPE":0,"CLASSIFICATION_TYPE":"U","NORAD_CAT_ID":54244,"ELEMENT_SET_NO":999,"REV_AT_EPOCH":1209,"BSTAR":0,"MEAN_MOTION_DOT":0,"MEAN_MOTION_DDOT":0},{"OBJECT_NAME":"GALAXY 35 (G-35)","OBJECT_ID":"2022-170A","EPOCH":"2026-03-06T04:24:38.565216","MEAN_MOTION":1.00270967,"ECCENTRICITY":0.00020218,"INCLINATION":0.0105,"RA_OF_ASC_NODE":186.7077,"ARG_OF_PERICENTER":161.1903,"MEAN_ANOMALY":149.0565,"EPHEMERIS_TYPE":0,"CLASSIFICATION_TYPE":"U","NORAD_CAT_ID":54741,"ELEMENT_SET_NO":999,"REV_AT_EPOCH":1186,"BSTAR":0,"MEAN_MOTION_DOT":-1.67e-6,"MEAN_MOTION_DDOT":0},{"OBJECT_NAME":"GALAXY 36 (G-36)","OBJECT_ID":"2022-170B","EPOCH":"2026-03-06T06:41:16.981728","MEAN_MOTION":1.00272437,"ECCENTRICITY":0.0002101,"INCLINATION":0.0187,"RA_OF_ASC_NODE":136.7972,"ARG_OF_PERICENTER":262.6147,"MEAN_ANOMALY":135.8959,"EPHEMERIS_TYPE":0,"CLASSIFICATION_TYPE":"U","NORAD_CAT_ID":54742,"ELEMENT_SET_NO":999,"REV_AT_EPOCH":1174,"BSTAR":0,"MEAN_MOTION_DOT":-1.9e-6,"MEAN_MOTION_DDOT":0},{"OBJECT_NAME":"GALAXY 37 (G-37)","OBJECT_ID":"2023-112A","EPOCH":"2026-03-06T06:30:33.010560","MEAN_MOTION":1.00271929,"ECCENTRICITY":0.00020419,"INCLINATION":0.0146,"RA_OF_ASC_NODE":112.4536,"ARG_OF_PERICENTER":237.6319,"MEAN_ANOMALY":144.5276,"EPHEMERIS_TYPE":0,"CLASSIFICATION_TYPE":"U","NORAD_CAT_ID":57493,"ELEMENT_SET_NO":999,"REV_AT_EPOCH":951,"BSTAR":0,"MEAN_MOTION_DOT":4.3e-7,"MEAN_MOTION_DDOT":0}]
